start=new Date('2023-05-27T00:00:00.000Z').valueOf();
sats=[{"REV_AT_EPOCH":"6855","REF_FRAME":"TEME","SEMIMAJOR_AXIS":"6930.359","ARG_OF_PERICENTER":"83.0579","MEAN_MOTION_DOT":"0.00000188","FILE":"3917822","MEAN_MOTION_DDOT":"0.0000000000000","PERIAPSIS":"551.543","BSTAR":"0.00003261100000","MEAN_ELEMENT_THEORY":"SGP4","COUNTRY_CODE":"US","RA_OF_ASC_NODE":"281.4299","NORAD_CAT_ID":"51959","DECAY_DATE":null,"EPHEMERIS_TYPE":"0","MEAN_ANOMALY":"277.0521","INCLINATION":"53.0975","TIME_SYSTEM":"UTC","EPOCH":"2023-05-26T13:59:50.987328","OBJECT_NAME":"STARLINK-3704","GP_ID":"232563243","APOAPSIS":"552.905","ECCENTRICITY":"0.00009830","OBJECT_TYPE":"PAYLOAD","TLE_LINE2":"2 51959  53.0975 281.4299 0000983  83.0579 277.0521 15.04766708 68559","LAUNCH_DATE":"2022-03-09","ELEMENT_SET_NO":"999","CENTER_NAME":"EARTH","TLE_LINE1":"1 51959U 22025D   23146.58322902  .00000188  00000-0  32611-4 0  9991","OBJECT_ID":"2022-025D","SITE":"AFETR","RCS_SIZE":"LARGE","CLASSIFICATION_TYPE":"U","PERIOD":"95.696","MEAN_MOTION":"15.04766708"},{"MEAN_MOTION_DDOT":"0.0000000000000","FILE":"3917850","MEAN_MOTION_DOT":"-0.00000098","ARG_OF_PERICENTER":"92.1391","REV_AT_EPOCH":"6749","SEMIMAJOR_AXIS":"6930.347","REF_FRAME":"TEME","MEAN_ANOMALY":"267.9719","DECAY_DATE":null,"EPHEMERIS_TYPE":"0","NORAD_CAT_ID":"51960","RA_OF_ASC_NODE":"280.5701","COUNTRY_CODE":"US","MEAN_ELEMENT_THEORY":"SGP4","BSTAR":"0.00001251900000","PERIAPSIS":"551.477","OBJECT_TYPE":"PAYLOAD","TLE_LINE2":"2 51960  53.0977 280.5701 0001060  92.1391 267.9719 15.04770616 67493","APOAPSIS":"552.947","GP_ID":"232588127","OBJECT_NAME":"STARLINK-3691","ECCENTRICITY":"0.00010600","TIME_SYSTEM":"UTC","EPOCH":"2023-05-26T18:35:21.532992","INCLINATION":"53.0977","MEAN_MOTION":"15.04770616","CLASSIFICATION_TYPE":"U","RCS_SIZE":"LARGE","PERIOD":"95.696","TLE_LINE1":"1 51960U 22025E   23146.77455478 -.00000098  00000-0  12519-4 0  9995","SITE":"AFETR","OBJECT_ID":"2022-025E","LAUNCH_DATE":"2022-03-09","ELEMENT_SET_NO":"999","CENTER_NAME":"EARTH"},{"REV_AT_EPOCH":"6750","REF_FRAME":"TEME","SEMIMAJOR_AXIS":"6920.344","ARG_OF_PERICENTER":"90.8326","MEAN_MOTION_DOT":"-0.00001433","FILE":"3917850","MEAN_MOTION_DDOT":"0.0000000000000","PERIAPSIS":"541.426","BSTAR":"-0.00007371400000","MEAN_ELEMENT_THEORY":"SGP4","COUNTRY_CODE":"US","RA_OF_ASC_NODE":"279.1062","NORAD_CAT_ID":"51961","DECAY_DATE":null,"EPHEMERIS_TYPE":"0","MEAN_ANOMALY":"269.2794","INCLINATION":"53.0835","TIME_SYSTEM":"UTC","EPOCH":"2023-05-26T16:14:29.751072","GP_ID":"232586875","APOAPSIS":"542.993","OBJECT_NAME":"STARLINK-3689","ECCENTRICITY":"0.00011320","OBJECT_TYPE":"PAYLOAD","TLE_LINE2":"2 51961  53.0835 279.1062 0001132  90.8326 269.2794 15.08034210 67501","LAUNCH_DATE":"2022-03-09","ELEMENT_SET_NO":"999","CENTER_NAME":"EARTH","TLE_LINE1":"1 51961U 22025F   23146.67673323 -.00001433  00000-0 -73714-4 0  9995","OBJECT_ID":"2022-025F","SITE":"AFETR","RCS_SIZE":"LARGE","CLASSIFICATION_TYPE":"U","PERIOD":"95.489","MEAN_MOTION":"15.08034210"},{"MEAN_MOTION_DDOT":"0.0000000000000","FILE":"3917850","MEAN_MOTION_DOT":"0.00000104","ARG_OF_PERICENTER":"94.1312","SEMIMAJOR_AXIS":"6920.355","REF_FRAME":"TEME","REV_AT_EPOCH":"6750","MEAN_ANOMALY":"265.9752","DECAY_DATE":null,"EPHEMERIS_TYPE":"0","NORAD_CAT_ID":"51962","RA_OF_ASC_NODE":"279.1318","COUNTRY_CODE":"US","MEAN_ELEMENT_THEORY":"SGP4","BSTAR":"0.00002502100000","PERIAPSIS":"541.771","TLE_LINE2":"2 51962  53.0860 279.1318 0000650  94.1312 265.9752 15.08030628 67506","OBJECT_TYPE":"PAYLOAD","ECCENTRICITY":"0.00006500","GP_ID":"232586625","OBJECT_NAME":"STARLINK-3697","APOAPSIS":"542.670","EPOCH":"2023-05-26T15:45:22.184928","TIME_SYSTEM":"UTC","INCLINATION":"53.0860","MEAN_MOTION":"15.08030628","PERIOD":"95.489","CLASSIFICATION_TYPE":"U","RCS_SIZE":"LARGE","SITE":"AFETR","OBJECT_ID":"2022-025G","TLE_LINE1":"1 51962U 22025G   23146.65650677  .00000104  00000-0  25021-4 0  9991","CENTER_NAME":"EARTH","LAUNCH_DATE":"2022-03-09","ELEMENT_SET_NO":"999"},{"INCLINATION":"53.0906","EPOCH":"2023-05-26T16:08:03.276096","TIME_SYSTEM":"UTC","ECCENTRICITY":"0.00011120","GP_ID":"232587877","APOAPSIS":"542.989","OBJECT_NAME":"STARLINK-3675","TLE_LINE2":"2 51963  53.0906 279.1179 0001112  85.0800 275.0317 15.08030846 67509","OBJECT_TYPE":"PAYLOAD","CENTER_NAME":"EARTH","ELEMENT_SET_NO":"999","LAUNCH_DATE":"2022-03-09","OBJECT_ID":"2022-025H","SITE":"AFETR","TLE_LINE1":"1 51963U 22025H   23146.67226014 -.00000260  00000-0  16355-5 0  9993","PERIOD":"95.489","RCS_SIZE":"LARGE","CLASSIFICATION_TYPE":"U","MEAN_MOTION":"15.08030846","REF_FRAME":"TEME","SEMIMAJOR_AXIS":"6920.355","REV_AT_EPOCH":"6750","ARG_OF_PERICENTER":"85.0800","MEAN_MOTION_DOT":"-0.00000260","FILE":"3917850","MEAN_MOTION_DDOT":"0.0000000000000","PERIAPSIS":"541.450","BSTAR":"0.00000163550000","MEAN_ELEMENT_THEORY":"SGP4","RA_OF_ASC_NODE":"279.1179","COUNTRY_CODE":"US","NORAD_CAT_ID":"51963","DECAY_DATE":null,"EPHEMERIS_TYPE":"0","MEAN_ANOMALY":"275.0317"},{"MEAN_ELEMENT_THEORY":"SGP4","BSTAR":"0.00003862900000","PERIAPSIS":"541.547","MEAN_ANOMALY":"255.2854","NORAD_CAT_ID":"51964","DECAY_DATE":null,"EPHEMERIS_TYPE":"0","COUNTRY_CODE":"US","RA_OF_ASC_NODE":"279.1959","MEAN_MOTION_DOT":"0.00000316","ARG_OF_PERICENTER":"104.8243","REV_AT_EPOCH":"6750","SEMIMAJOR_AXIS":"6920.350","REF_FRAME":"TEME","MEAN_MOTION_DDOT":"0.0000000000000","FILE":"3917850","TLE_LINE1":"1 51964U 22025J   23146.64825797  .00000316  00000-0  38629-4 0  9992","SITE":"AFETR","OBJECT_ID":"2022-025J","ELEMENT_SET_NO":"999","LAUNCH_DATE":"2022-03-09","CENTER_NAME":"EARTH","MEAN_MOTION":"15.08032371","CLASSIFICATION_TYPE":"U","RCS_SIZE":"LARGE","PERIOD":"95.489","TIME_SYSTEM":"UTC","EPOCH":"2023-05-26T15:33:29.488608","INCLINATION":"53.0883","OBJECT_TYPE":"PAYLOAD","TLE_LINE2":"2 51964  53.0883 279.1959 0000966 104.8243 255.2854 15.08032371 67508","OBJECT_NAME":"STARLINK-3690","GP_ID":"232587627","APOAPSIS":"542.884","ECCENTRICITY":"0.00009660"},{"OBJECT_ID":"2022-025K","SITE":"AFETR","TLE_LINE1":"1 51965U 22025K   23146.77152237  .00000414  00000-0  48429-4 0  9997","CENTER_NAME":"EARTH","LAUNCH_DATE":"2022-03-09","ELEMENT_SET_NO":"999","MEAN_MOTION":"15.04771171","PERIOD":"95.696","RCS_SIZE":"LARGE","CLASSIFICATION_TYPE":"U","EPOCH":"2023-05-26T18:30:59.532768","TIME_SYSTEM":"UTC","INCLINATION":"53.0971","TLE_LINE2":"2 51965  53.0971 280.5858 0000798  84.4420 275.6660 15.04771171 67497","OBJECT_TYPE":"PAYLOAD","ECCENTRICITY":"0.00007980","GP_ID":"232586375","APOAPSIS":"552.763","OBJECT_NAME":"STARLINK-3696","BSTAR":"0.00004842900000","MEAN_ELEMENT_THEORY":"SGP4","PERIAPSIS":"551.657","MEAN_ANOMALY":"275.6660","RA_OF_ASC_NODE":"280.5858","COUNTRY_CODE":"US","NORAD_CAT_ID":"51965","DECAY_DATE":null,"EPHEMERIS_TYPE":"0","ARG_OF_PERICENTER":"84.4420","MEAN_MOTION_DOT":"0.00000414","REF_FRAME":"TEME","SEMIMAJOR_AXIS":"6930.345","REV_AT_EPOCH":"6749","MEAN_MOTION_DDOT":"0.0000000000000","FILE":"3917850"},{"FILE":"3917850","MEAN_MOTION_DDOT":"0.0000000000000","REV_AT_EPOCH":"6748","SEMIMAJOR_AXIS":"6927.850","REF_FRAME":"TEME","MEAN_MOTION_DOT":"0.00000364","ARG_OF_PERICENTER":"111.3692","NORAD_CAT_ID":"51966","DECAY_DATE":null,"EPHEMERIS_TYPE":"0","RA_OF_ASC_NODE":"280.6901","COUNTRY_CODE":"US","MEAN_ANOMALY":"248.7404","PERIAPSIS":"549.023","MEAN_ELEMENT_THEORY":"SGP4","BSTAR":"0.00004409400000","GP_ID":"232587126","OBJECT_NAME":"STARLINK-3699","APOAPSIS":"550.408","ECCENTRICITY":"0.00010000","OBJECT_TYPE":"PAYLOAD","TLE_LINE2":"2 51966  53.0912 280.6901 0001000 111.3692 248.7404 15.05584052 67488","INCLINATION":"53.0912","TIME_SYSTEM":"UTC","EPOCH":"2023-05-26T15:35:17.487744","CLASSIFICATION_TYPE":"U","RCS_SIZE":"LARGE","PERIOD":"95.644","MEAN_MOTION":"15.05584052","LAUNCH_DATE":"2022-03-09","ELEMENT_SET_NO":"999","CENTER_NAME":"EARTH","TLE_LINE1":"1 51966U 22025L   23146.64950796  .00000364  00000-0  44094-4 0  9998","SITE":"AFETR","OBJECT_ID":"2022-025L"},{"EPOCH":"2023-05-26T15:18:02.814048","TIME_SYSTEM":"UTC","INCLINATION":"53.0873","TLE_LINE2":"2 51968  53.0873 279.2418 0000989  92.9546 267.1557 15.08035439 67500","OBJECT_TYPE":"PAYLOAD","ECCENTRICITY":"0.00009890","OBJECT_NAME":"STARLINK-3681","GP_ID":"232587377","APOAPSIS":"542.890","SITE":"AFETR","OBJECT_ID":"2022-025N","TLE_LINE1":"1 51968U 22025N   23146.63753257  .00000217  00000-0  32313-4 0  9990","CENTER_NAME":"EARTH","ELEMENT_SET_NO":"999","LAUNCH_DATE":"2022-03-09","MEAN_MOTION":"15.08035439","PERIOD":"95.488","CLASSIFICATION_TYPE":"U","RCS_SIZE":"LARGE","MEAN_MOTION_DOT":"0.00000217","ARG_OF_PERICENTER":"92.9546","SEMIMAJOR_AXIS":"6920.341","REF_FRAME":"TEME","REV_AT_EPOCH":"6750","MEAN_MOTION_DDOT":"0.0000000000000","FILE":"3917850","MEAN_ELEMENT_THEORY":"SGP4","BSTAR":"0.00003231300000","PERIAPSIS":"541.521","MEAN_ANOMALY":"267.1557","DECAY_DATE":null,"NORAD_CAT_ID":"51968","EPHEMERIS_TYPE":"0","RA_OF_ASC_NODE":"279.2418","COUNTRY_CODE":"US"},{"MEAN_ANOMALY":"259.0172","COUNTRY_CODE":"US","RA_OF_ASC_NODE":"278.0624","DECAY_DATE":null,"NORAD_CAT_ID":"51969","EPHEMERIS_TYPE":"0","BSTAR":"0.00004726300000","MEAN_ELEMENT_THEORY":"SGP4","PERIAPSIS":"541.588","MEAN_MOTION_DDOT":"0.0000000000000","FILE":"3917850","ARG_OF_PERICENTER":"101.0923","MEAN_MOTION_DOT":"0.00000450","REV_AT_EPOCH":"6752","REF_FRAME":"TEME","SEMIMAJOR_AXIS":"6920.368","MEAN_MOTION":"15.08026509","RCS_SIZE":"LARGE","CLASSIFICATION_TYPE":"U","PERIOD":"95.489","TLE_LINE1":"1 51969U 22025P   23146.80446541  .00000450  00000-0  47263-4 0  9994","OBJECT_ID":"2022-025P","SITE":"AFETR","LAUNCH_DATE":"2022-03-09","ELEMENT_SET_NO":"999","CENTER_NAME":"EARTH","OBJECT_TYPE":"PAYLOAD","TLE_LINE2":"2 51969  53.0522 278.0624 0000932 101.0923 259.0172 15.08026509 67520","APOAPSIS":"542.878","GP_ID":"232588128","OBJECT_NAME":"STARLINK-3680","ECCENTRICITY":"0.00009320","TIME_SYSTEM":"UTC","EPOCH":"2023-05-26T19:18:25.811424","INCLINATION":"53.0522"}];
